GLOBALSTAR M032         
1 25852U 99037B   25033.81067744 -.00000081  00000+0 -44720-3 0  9990
2 25852  51.9918 189.1041 0010032 304.5326  55.4526 11.19056019119742
GLOBALSTAR M030         
1 25854U 99037D   25033.60895299 -.00000067  00000+0  17834-3 0  9992
2 25854  51.9850 180.2067 0004362 155.3215 204.7811 11.55104097134492
GLOBALSTAR M048         
1 25872U 99041A   25033.66423383 -.00000040  00000+0  81041-3 0  9996
2 25872  51.9381 295.2495 0012989 315.7347  56.2958 11.33854127109727
GLOBALSTAR M026         
1 25873U 99041B   25033.70408284  .00000041  00000+0  38555-2 0  9996
2 25873  52.0006 114.2494 0001575  60.1071 111.8384 11.06826855133597
GLOBALSTAR M043         
1 25874U 99041C   25033.30505350 -.00000082  00000+0 -40284-3 0  9995
2 25874  51.9422  38.3664 0013345  83.9204  15.8260 11.25690451107681
GLOBALSTAR M028         
1 25875U 99041D   25033.00107700 -.00000085  00000+0  99088-4 0  9999
2 25875  51.9597 236.1657 0063918 137.0830 223.5043 12.50576380173269
